{
  "norad_id": 48687,
  "name": "STARLINK-2627",
  "history": [
    {
      "epoch": "2026-03-28T21:59:37.847328Z",
      "apogee_km": 475.97024294266885,
      "perigee_km": 474.4069993684834,
      "latitude_deg": 1.1189428084558169e-05,
      "longitude_deg": 179.42702002446086,
      "height_km": 476.01525794348044,
      "semi_major_axis_km": 6853.325621155575,
      "eccentricity": 0.00011405,
      "inclination_deg": 53.1612,
      "raan_deg": 335.6647,
      "arg_perigee_deg": 84.7328,
      "mean_anomaly_deg": 275.3803,
      "mean_motion_rev_day": 15.30208858
    },
    {
      "epoch": "2026-03-28T23:33:41.035680Z",
      "apogee_km": 475.99916355770256,
      "perigee_km": 474.3749257591189,
      "latitude_deg": 1.2156971155271022e-05,
      "longitude_deg": 155.5466588336141,
      "height_km": 476.2140099912368,
      "semi_major_axis_km": 6853.3240446584105,
      "eccentricity": 0.0001185,
      "inclination_deg": 53.1611,
      "raan_deg": 335.362,
      "arg_perigee_deg": 99.1138,
      "mean_anomaly_deg": 260.9997,
      "mean_motion_rev_day": 15.30209386
    },
    {
      "epoch": "2026-03-29T23:04:29.470080Z",
      "apogee_km": 476.1594734763621,
      "perigee_km": 474.32002715657836,
      "latitude_deg": -4.067123175422202e-05,
      "longitude_deg": 157.32894671427604,
      "height_km": 476.1404442940216,
      "semi_major_axis_km": 6853.37675031647,
      "eccentricity": 0.0001342,
      "inclination_deg": 53.1605,
      "raan_deg": 330.8118,
      "arg_perigee_deg": 90.1658,
      "mean_anomaly_deg": 269.9496,
      "mean_motion_rev_day": 15.30191734
    },
    {
      "epoch": "2026-03-29T23:04:29.470944Z",
      "apogee_km": 476.1596790776657,
      "perigee_km": 474.31982155527476,
      "latitude_deg": -4.3450856334890326e-05,
      "longitude_deg": 157.32894103353323,
      "height_km": 476.1404448908907,
      "semi_major_axis_km": 6853.37675031647,
      "eccentricity": 0.00013423,
      "inclination_deg": 53.1605,
      "raan_deg": 330.8118,
      "arg_perigee_deg": 90.1658,
      "mean_anomaly_deg": 269.9496,
      "mean_motion_rev_day": 15.30191734
    }
  ]
}